     2.100          NAVIGATION                              RINEX VERSION / TYPE
fic2rin                                 09/09/2014 00:25:05 PGM / RUN BY / DATE
                                                            END OF HEADER
13 14  9  8 18  0  0.0 -.394624657929D-04 -.386535248253D-11  .000000000000D+00
     .510000000000D+02 -.365625000000D+02  .464697927963D-08 -.293562986111D+01
    -.188313424587D-05  .524931482505D-02  .362284481525D-05  .515376583862D+04
     .151200000000D+06  .577419996262D-07 -.137683798699D+01  .521540641785D-07
     .976105931416D+00  .319437500000D+03  .232441680959D+01 -.824391482071D-08
    -.340371320689D-09  .100000000000D+01  .180900000000D+04  .000000000000D+00
     .240000000000D+01  .000000000000D+00 -.111758708954D-07  .510000000000D+02
     .144006000000D+06  .400000000000D+01
14 14  9  8 18  0  0.0  .136866234243D-03 -.375166564481D-11  .000000000000D+00
     .620000000000D+02 -.391250000000D+02  .478698511143D-08 -.258379952011D+01
    -.189803540707D-05  .790018821135D-02  .360794365406D-05  .515370446396D+04
     .151200000000D+06  .428408384323D-07 -.140946727610D+01 -.391155481339D-07
     .968635345676D+00  .314406250000D+03 -.198281797720D+01 -.828498796015D-08
    -.255724937684D-09  .100000000000D+01  .180900000000D+04  .000000000000D+00
     .240000000000D+01  .000000000000D+00 -.884756445885D-08  .620000000000D+02
     .144006000000D+06  .400000000000D+01
15 14  9  8 18  0  0.0 -.201680697501D-03 -.227373675443D-11  .000000000000D+00
     .700000000000D+02 -.214062500000D+02  .562594862906D-08  .307961557179D+01
    -.113248825073D-05  .650073878933D-02  .273063778877D-05  .515375067711D+04
     .151200000000D+06 -.596046447754D-07 -.152500565673D+01 -.540167093277D-07
     .935229188552D+00  .314875000000D+03  .277390610341D+00 -.878679457669D-08
    -.159649507186D-09  .100000000000D+01  .180900000000D+04  .000000000000D+00
     .240000000000D+01  .000000000000D+00 -.102445483208D-07  .700000000000D+02
     .144006000000D+06  .400000000000D+01
16 14  9  8 18  0  0.0 -.196189153939D-03  .250111042988D-11  .000000000000D+00
     .600000000000D+02  .117312500000D+03  .393337812670D-08 -.153715390401D+01
     .579096376896D-05  .765701057389D-02  .926107168198D-05  .515365720558D+04
     .151200000000D+06  .614672899246D-07  .669169736005D+00 -.135973095894D-06
     .988933723162D+00  .212812500000D+03  .239011280762D+00 -.788032824730D-08
     .775389440940D-09  .100000000000D+01  .180900000000D+04  .000000000000D+00
     .240000000000D+01  .000000000000D+00 -.102445483208D-07  .600000000000D+02
     .144006000000D+06  .400000000000D+01
17 14  9  8 18  0  0.0 -.122461002320D-03 -.272848410532D-11  .000000000000D+00
     .940000000000D+02 -.422812500000D+02  .492806241644D-08 -.243931348560D+01
    -.214949250221D-05  .945354613941D-02  .189617276192D-05  .515363984489D+04
     .151200000000D+06  .223517417908D-06  .169991836847D+01 -.204890966415D-07
     .969338353885D+00  .345375000000D+03 -.209726048151D+01 -.846570977365D-08
    -.510735559900D-10  .100000000000D+01  .180900000000D+04  .000000000000D+00
     .240000000000D+01  .000000000000D+00 -.102445483208D-07  .940000000000D+02
     .144006000000D+06  .400000000000D+01
18 14  9  8 18  0  0.0  .343507155776D-03  .250111042988D-11  .000000000000D+00
     .310000000000D+02  .923437500000D+02  .546237038679D-08 -.926923169796D+00
     .485591590405D-05  .154967580456D-01  .983104109764D-05  .515372992516D+04
     .151200000000D+06  .149011611938D-07 -.254482807298D+01  .374391674995D-06
     .925798380361D+00  .174812500000D+03 -.201245074194D+01 -.878965183857D-08
     .500377985609D-09  .100000000000D+01  .180900000000D+04  .000000000000D+00
     .240000000000D+01  .000000000000D+00 -.107102096081D-07  .310000000000D+02
     .144006000000D+06  .400000000000D+01
19 14  9  8 18  0  0.0 -.477700028569D-03 -.193267624127D-11  .000000000000D+00
     .240000000000D+02 -.474375000000D+02  .502092342733D-08  .298677336744D+01
    -.251270830631D-05  .105897331377D-01  .215135514736D-05  .515364385033D+04
     .151200000000D+06 -.115483999252D-06  .175042905886D+01 -.707805156708D-07
     .966459494952D+00  .343468750000D+03  .498475825462D+00 -.846535261592D-08
    -.203579908492D-09  .100000000000D+01  .180900000000D+04  .000000000000D+00
     .240000000000D+01  .000000000000D+00 -.149011611938D-07  .240000000000D+02
     .144006000000D+06  .400000000000D+01
21 14  9  8 18  0  0.0 -.382912345231D-03 -.204636307899D-11  .000000000000D+00
     .910000000000D+02 -.834687500000D+02  .515307178898D-08  .171892918201D-01
    -.425241887569D-05  .216309722746D-01  .124815851450D-04  .515371021843D+04
     .151200000000D+06 -.182539224625D-06  .269429565662D+01  .214204192162D-06
     .933161577674D+00  .126718750000D+03 -.199699608622D+01 -.878322299935D-08
    -.453947480163D-09  .100000000000D+01  .180900000000D+04  .000000000000D+00
     .340000000000D+01  .000000000000D+00 -.111758708954D-07  .910000000000D+02
     .144006000000D+06  .400000000000D+01
22 14  9  8 18  0  0.0  .266123563051D-03  .341060513165D-11  .000000000000D+00
     .530000000000D+02  .918750000000D+02  .538558147394D-08 -.147838687263D+01
     .465847551823D-05  .737080036197D-02  .104103237391D-04  .515372622681D+04
     .151200000000D+06  .245869159698D-06 -.254314591907D+01  .109896063805D-06
     .923585896706D+00  .159437500000D+03 -.205043784124D+01 -.848963934184D-08
     .517521556850D-09  .100000000000D+01  .180900000000D+04  .000000000000D+00
     .240000000000D+01  .000000000000D+00 -.172294676304D-07  .530000000000D+02
     .144006000000D+06  .400000000000D+01
23 14  9  8 18  0  0.0 -.508143566549D-04 -.295585778076D-11  .000000000000D+00
     .130000000000D+02 -.213750000000D+02  .529593488266D-08  .257357064768D+01
    -.129267573357D-05  .970473617781D-02  .300817191601D-05  .515372878838D+04
     .151200000000D+06 -.117346644402D-06 -.147671661810D+01 -.465661287308D-07
     .950321802775D+00  .318281250000D+03 -.273226102866D+01 -.858714340328D-08
    -.223580741607D-09  .100000000000D+01  .180900000000D+04  .000000000000D+00
     .240000000000D+01  .000000000000D+00 -.200234353542D-07  .130000000000D+02
     .144006000000D+06  .400000000000D+01
24 14  9  8 18  0  0.0 -.348612666130D-04 -.568434188608D-12  .000000000000D+00
     .430000000000D+02 -.394375000000D+02  .437411077070D-08  .191231394675D+01
    -.215694308281D-05  .219141307753D-02  .123493373394D-04  .515371430969D+04
     .151200000000D+06  .931322574615D-08 -.449612884067D+00  .484287738800D-07
     .956142642630D+00  .137187500000D+03  .251816748378D+00 -.796926052312D-08
    -.442518432669D-09  .100000000000D+01  .180900000000D+04  .000000000000D+00
     .240000000000D+01  .000000000000D+00  .279396772385D-08  .430000000000D+02
     .144006000000D+06  .400000000000D+01
25 14  9  8 18  0  0.0  .219549983740D-04 -.909494701773D-12  .000000000000D+00
     .870000000000D+02  .121531250000D+03  .420910389750D-08 -.149133521907D+00
     .636093318462D-05  .367328443099D-02  .955723226070D-05  .515356007767D+04
     .151200000000D+06  .109896063805D-06  .606971984717D+00  .800937414169D-07
     .977054225636D+00  .208875000000D+03  .725911370471D+00 -.806890753096D-08
     .657527388655D-09  .100000000000D+01  .180900000000D+04  .000000000000D+00
     .240000000000D+01  .000000000000D+00  .558793544769D-08  .870000000000D+02
     .144006000000D+06  .400000000000D+01
26 14  9  8 18  0  0.0 -.481479801238D-04 -.129602995003D-10  .000000000000D+00
     .720000000000D+02 -.416562500000D+02  .452411701906D-08  .254817782476D+01
    -.231154263020D-05  .212289873743D-01  .323913991451D-05  .515368253899D+04
     .151200000000D+06  .171363353729D-06 -.138597596872D+01 -.195577740669D-06
     .973477968785D+00  .319093750000D+03  .129254596242D+01 -.799033282943D-08
    -.363586573412D-09  .100000000000D+01  .180900000000D+04  .000000000000D+00
     .240000000000D+01  .000000000000D+00 -.605359673500D-08  .720000000000D+02
     .144006000000D+06  .400000000000D+01
27 14  9  8 18  0  0.0  .128517858684D-04  .306954461848D-11  .000000000000D+00
     .880000000000D+02 -.271562500000D+02  .515557189312D-08 -.262160674486D+01
    -.148266553879D-05  .146816694178D-02  .188872218132D-05  .515367059135D+04
     .151200000000D+06 -.465661287308D-07  .165370702022D+01 -.260770320892D-07
     .964120463030D+00  .346812500000D+03  .345401670383D+00 -.869571935447D-08
    -.864321716755D-10  .100000000000D+01  .180900000000D+04  .000000000000D+00
     .240000000000D+01  .000000000000D+00  .186264514923D-08  .880000000000D+02
     .144006000000D+06  .400000000000D+01
28 14  9  8 18  0  0.0  .382948666811D-03  .272848410532D-11  .000000000000D+00
     .890000000000D+02  .110968750000D+03  .385801784479D-08 -.165288479589D+01
     .618025660515D-05  .192576037953D-01  .827573239803D-05  .515368238258D+04
     .151200000000D+06  .230967998505D-06  .674834315729D+00  .361353158951D-06
     .987480922624D+00  .232062500000D+03 -.170853677436D+01 -.775425156713D-08
     .628954769919D-09  .100000000000D+01  .180900000000D+04  .000000000000D+00
     .240000000000D+01  .000000000000D+00 -.107102096081D-07  .890000000000D+02
     .144006000000D+06  .400000000000D+01
30 14  9  8 18  0  0.0 -.594845041633D-04 -.477484718431D-11  .000000000000D+00
     .110000000000D+03 -.427812500000D+02  .423624788530D-08  .924677337460D+00
    -.215135514736D-05  .102377054282D-02  .129025429487D-04  .515366705704D+04
     .151200000000D+06  .130385160446D-07 -.360240322027D+00  .912696123123D-07
     .958515697638D+00  .129656250000D+03  .309374493199D+01 -.788354266691D-08
    -.302155443130D-09  .100000000000D+01  .180900000000D+04  .000000000000D+00
     .340000000000D+01  .000000000000D+00  .325962901115D-08  .110000000000D+03
     .144006000000D+06  .400000000000D+01
